{
  "norad_id": 48215,
  "name": "ONEWEB-0209",
  "history": [
    {
      "epoch": "2026-04-13T05:42:28.297728Z",
      "apogee_km": 1206.972438275664,
      "perigee_km": 1204.6177790345691,
      "latitude_deg": 5.406453675768398e-05,
      "longitude_deg": 15.631712148569811,
      "height_km": 1208.5578309385885,
      "semi_major_axis_km": 7583.932108655116,
      "eccentricity": 0.00015524,
      "inclination_deg": 87.8921,
      "raan_deg": 302.6811,
      "arg_perigee_deg": 83.7366,
      "mean_anomaly_deg": 276.3941,
      "mean_motion_rev_day": 13.14501564
    },
    {
      "epoch": "2026-04-14T14:35:26.797920Z",
      "apogee_km": 1206.969926249133,
      "perigee_km": 1204.6173909588351,
      "latitude_deg": 4.560075679856757e-05,
      "longitude_deg": -119.23609099836153,
      "height_km": 1208.5718890823416,
      "semi_major_axis_km": 7583.930658603984,
      "eccentricity": 0.0001551,
      "inclination_deg": 87.892,
      "raan_deg": 302.4075,
      "arg_perigee_deg": 84.4902,
      "mean_anomaly_deg": 275.6405,
      "mean_motion_rev_day": 13.14501941
    },
    {
      "epoch": "2026-04-15T10:41:09.221568Z",
      "apogee_km": 1206.9513368019943,
      "perigee_km": 1204.6400574732152,
      "latitude_deg": 3.9492233637615243e-05,
      "longitude_deg": -61.655332097296366,
      "height_km": 1208.5875695043408,
      "semi_major_axis_km": 7583.932697137604,
      "eccentricity": 0.00015238,
      "inclination_deg": 87.8918,
      "raan_deg": 302.2403,
      "arg_perigee_deg": 85.0685,
      "mean_anomaly_deg": 275.0619,
      "mean_motion_rev_day": 13.14501411
    },
    {
      "epoch": "2026-04-16T19:34:07.567968Z",
      "apogee_km": 1206.9614492845812,
      "perigee_km": 1204.6255986831948,
      "latitude_deg": -5.909764887274953e-05,
      "longitude_deg": 163.47740529500322,
      "height_km": 1208.5947493192068,
      "semi_major_axis_km": 7583.930523983888,
      "eccentricity": 0.000154,
      "inclination_deg": 87.8917,
      "raan_deg": 301.9666,
      "arg_perigee_deg": 85.5815,
      "mean_anomaly_deg": 274.549,
      "mean_motion_rev_day": 13.14501976
    },
    {
      "epoch": "2026-04-17T19:19:03.098208Z",
      "apogee_km": 1206.9550408482291,
      "perigee_km": 1204.6346610591127,
      "latitude_deg": -5.46956612968546e-05,
      "longitude_deg": 166.07290388621783,
      "height_km": 1208.6075349752323,
      "semi_major_axis_km": 7583.931850953671,
      "eccentricity": 0.00015298,
      "inclination_deg": 87.8918,
      "raan_deg": 301.7688,
      "arg_perigee_deg": 86.1185,
      "mean_anomaly_deg": 274.0119,
      "mean_motion_rev_day": 13.14501631
    },
    {
      "epoch": "2026-04-18T13:35:08.863584Z",
      "apogee_km": 1206.9606908915284,
      "perigee_km": 1204.6263570762467,
      "latitude_deg": 2.901482961818831e-05,
      "longitude_deg": -108.85336634105738,
      "height_km": 1208.6175693025589,
      "semi_major_axis_km": 7583.930523983888,
      "eccentricity": 0.0001539,
      "inclination_deg": 87.8918,
      "raan_deg": 301.6168,
      "arg_perigee_deg": 86.7019,
      "mean_anomaly_deg": 273.4287,
      "mean_motion_rev_day": 13.14501976
    },
    {
      "epoch": "2026-04-19T11:30:27.860832Z",
      "apogee_km": 1206.9368014884913,
      "perigee_km": 1204.6534312069016,
      "latitude_deg": 5.5080335091792406e-06,
      "longitude_deg": -78.76522524473255,
      "height_km": 1208.6299613690683,
      "semi_major_axis_km": 7583.932116347696,
      "eccentricity": 0.00015054,
      "inclination_deg": 87.8923,
      "raan_deg": 301.4344,
      "arg_perigee_deg": 87.1677,
      "mean_anomaly_deg": 272.9625,
      "mean_motion_rev_day": 13.14501562
    },
    {
      "epoch": "2026-04-20T05:46:33.731616Z",
      "apogee_km": 1206.942310823957,
      "perigee_km": 1204.6489295996062,
      "latitude_deg": 2.5544770529953967e-05,
      "longitude_deg": 6.307760385450543,
      "height_km": 1208.6364397363461,
      "semi_major_axis_km": 7583.932620211782,
      "eccentricity": 0.0001512,
      "inclination_deg": 87.8921,
      "raan_deg": 301.2821,
      "arg_perigee_deg": 87.4797,
      "mean_anomaly_deg": 272.6506,
      "mean_motion_rev_day": 13.14501431
    },
    {
      "epoch": "2026-04-21T05:31:29.329248Z",
      "apogee_km": 1206.9165771394437,
      "perigee_km": 1204.6712785489462,
      "latitude_deg": -1.492460931083108e-05,
      "longitude_deg": 8.90287220205391,
      "height_km": 1208.6405560333344,
      "semi_major_axis_km": 7583.930927844194,
      "eccentricity": 0.00014803,
      "inclination_deg": 87.8925,
      "raan_deg": 301.0842,
      "arg_perigee_deg": 87.7191,
      "mean_anomaly_deg": 272.4108,
      "mean_motion_rev_day": 13.14501871
    },
    {
      "epoch": "2026-04-22T18:03:41.183136Z",
      "apogee_km": 1206.8925717458587,
      "perigee_km": 1204.7008149084868,
      "latitude_deg": -2.417434447912404e-05,
      "longitude_deg": 179.04897090366867,
      "height_km": 1208.6796905379556,
      "semi_major_axis_km": 7583.9336933271725,
      "eccentricity": 0.0001445,
      "inclination_deg": 87.8913,
      "raan_deg": 300.7802,
      "arg_perigee_deg": 89.5625,
      "mean_anomaly_deg": 270.567,
      "mean_motion_rev_day": 13.14501152
    },
    {
      "epoch": "2026-04-23T10:30:10.463904Z",
      "apogee_km": 1206.926898971241,
      "perigee_km": 1204.662033678137,
      "latitude_deg": 2.3110344528412293e-05,
      "longitude_deg": -68.38505899446598,
      "height_km": 1208.6831874120664,
      "semi_major_axis_km": 7583.931466324689,
      "eccentricity": 0.00014932,
      "inclination_deg": 87.8915,
      "raan_deg": 300.6434,
      "arg_perigee_deg": 89.8706,
      "mean_anomaly_deg": 270.2595,
      "mean_motion_rev_day": 13.14501731
    },
    {
      "epoch": "2026-04-24T12:04:42.652416Z",
      "apogee_km": 1206.9332568275104,
      "perigee_km": 1204.6565604685347,
      "latitude_deg": 4.108831797708982e-05,
      "longitude_deg": -93.28263148353129,
      "height_km": 1208.7214155043112,
      "semi_major_axis_km": 7583.931908648023,
      "eccentricity": 0.0001501,
      "inclination_deg": 87.8915,
      "raan_deg": 300.4303,
      "arg_perigee_deg": 91.7738,
      "mean_anomaly_deg": 268.3564,
      "mean_motion_rev_day": 13.14501616
    },
    {
      "epoch": "2026-04-25T19:08:04.472736Z",
      "apogee_km": 1206.9255053170236,
      "perigee_km": 1204.6594271925078,
      "latitude_deg": 1.791279933868634e-05,
      "longitude_deg": 159.3426220604291,
      "height_km": 1208.7105099615817,
      "semi_major_axis_km": 7583.929466254765,
      "eccentricity": 0.0001494,
      "inclination_deg": 87.8914,
      "raan_deg": 300.1719,
      "arg_perigee_deg": 91.3533,
      "mean_anomaly_deg": 268.7768,
      "mean_motion_rev_day": 13.14502251
    },
    {
      "epoch": "2026-04-26T22:32:13.112160Z",
      "apogee_km": 1206.9333266541444,
      "perigee_km": 1204.65192894351,
      "latitude_deg": 1.2137061201140023e-05,
      "longitude_deg": 106.9529481857555,
      "height_km": 1208.7318999062763,
      "semi_major_axis_km": 7583.929627798827,
      "eccentricity": 0.00015041,
      "inclination_deg": 87.8912,
      "raan_deg": 299.9436,
      "arg_perigee_deg": 92.4117,
      "mean_anomaly_deg": 267.7185,
      "mean_motion_rev_day": 13.14502209
    },
    {
      "epoch": "2026-04-27T18:37:55.432128Z",
      "apogee_km": 1206.946628201159,
      "perigee_km": 1204.639596660957,
      "latitude_deg": 2.303667895778839e-05,
      "longitude_deg": 164.53404008153694,
      "height_km": 1208.7395247439076,
      "semi_major_axis_km": 7583.930112431058,
      "eccentricity": 0.0001521,
      "inclination_deg": 87.8913,
      "raan_deg": 299.7763,
      "arg_perigee_deg": 92.7413,
      "mean_anomaly_deg": 267.3891,
      "mean_motion_rev_day": 13.14502083
    }
  ]
}